start=new Date('2023-06-24T00:00:00.000Z').valueOf();
sats=[{"COUNTRY_CODE":"US","DECAY_DATE":null,"CENTER_NAME":"EARTH","OBJECT_NAME":"STARLINK-5661","ECCENTRICITY":"0.00016870","TIME_SYSTEM":"UTC","SITE":"AFETR","PERIOD":"95.838","MEAN_ANOMALY":"88.5907","REV_AT_EPOCH":"2321","SEMIMAJOR_AXIS":"6937.199","MEAN_MOTION":"15.02541652","ELEMENT_SET_NO":"999","INCLINATION":"43.0042","OBJECT_TYPE":"PAYLOAD","BSTAR":"0.00002311400000","NORAD_CAT_ID":"55343","MEAN_MOTION_DOT":"0.00000109","RA_OF_ASC_NODE":"279.9135","ARG_OF_PERICENTER":"271.4742","EPOCH":"2023-06-23T16:03:21.190464","RCS_SIZE":"LARGE","MEAN_ELEMENT_THEORY":"SGP4","TLE_LINE1":"1 55343U 23013N   23174.66899526  .00000109  00000-0  23114-4 0  9992","EPHEMERIS_TYPE":"0","CLASSIFICATION_TYPE":"U","PERIAPSIS":"557.894","LAUNCH_DATE":"2023-01-26","GP_ID":"234506072","REF_FRAME":"TEME","OBJECT_ID":"2023-013N","MEAN_MOTION_DDOT":"0.0000000000000","TLE_LINE2":"2 55343  43.0042 279.9135 0001687 271.4742  88.5907 15.02541652 23216","APOAPSIS":"560.234","FILE":"3940855"},{"INCLINATION":"43.0038","SEMIMAJOR_AXIS":"6937.205","ELEMENT_SET_NO":"999","MEAN_MOTION":"15.02539798","PERIOD":"95.838","MEAN_ANOMALY":"82.9976","REV_AT_EPOCH":"2320","OBJECT_TYPE":"PAYLOAD","BSTAR":"0.00001600100000","COUNTRY_CODE":"US","DECAY_DATE":null,"CENTER_NAME":"EARTH","SITE":"AFETR","OBJECT_NAME":"STARLINK-5662","ECCENTRICITY":"0.00016140","TIME_SYSTEM":"UTC","REF_FRAME":"TEME","PERIAPSIS":"557.950","LAUNCH_DATE":"2023-01-26","GP_ID":"234506576","OBJECT_ID":"2023-013P","MEAN_MOTION_DDOT":"0.0000000000000","TLE_LINE2":"2 55344  43.0038 280.2919 0001614 277.0683  82.9976 15.02539798 23204","APOAPSIS":"560.190","FILE":"3940855","RA_OF_ASC_NODE":"280.2919","ARG_OF_PERICENTER":"277.0683","MEAN_MOTION_DOT":"0.00000012","NORAD_CAT_ID":"55344","RCS_SIZE":"LARGE","TLE_LINE1":"1 55344U 23013P   23174.60473931  .00000012  00000-0  16001-4 0  9995","MEAN_ELEMENT_THEORY":"SGP4","EPHEMERIS_TYPE":"0","CLASSIFICATION_TYPE":"U","EPOCH":"2023-06-23T14:30:49.476384"},{"DECAY_DATE":null,"CENTER_NAME":"EARTH","COUNTRY_CODE":"US","TIME_SYSTEM":"UTC","OBJECT_NAME":"STARLINK-5653","ECCENTRICITY":"0.00016340","SITE":"AFETR","REV_AT_EPOCH":"2336","PERIOD":"95.837","MEAN_ANOMALY":"90.1208","SEMIMAJOR_AXIS":"6937.193","MEAN_MOTION":"15.02543677","ELEMENT_SET_NO":"999","INCLINATION":"43.0027","BSTAR":"0.00002585300000","OBJECT_TYPE":"PAYLOAD","NORAD_CAT_ID":"55345","MEAN_MOTION_DOT":"0.00000146","ARG_OF_PERICENTER":"269.9447","RA_OF_ASC_NODE":"266.9013","EPOCH":"2023-06-23T16:06:54.765216","TLE_LINE1":"1 55345U 23013Q   23174.67146719  .00000146  00000-0  25853-4 0  9997","EPHEMERIS_TYPE":"0","MEAN_ELEMENT_THEORY":"SGP4","CLASSIFICATION_TYPE":"U","RCS_SIZE":"LARGE","GP_ID":"234506080","LAUNCH_DATE":"2023-01-26","PERIAPSIS":"557.924","REF_FRAME":"TEME","TLE_LINE2":"2 55345  43.0027 266.9013 0001634 269.9447  90.1208 15.02543677 23366","FILE":"3940855","APOAPSIS":"560.191","OBJECT_ID":"2023-013Q","MEAN_MOTION_DDOT":"0.0000000000000"},{"OBJECT_ID":"2023-013R","MEAN_MOTION_DDOT":"0.0000000000000","TLE_LINE2":"2 55346  43.0043 283.5008 0001496 273.9760  86.0911 15.02532295 23115","FILE":"3940276","APOAPSIS":"560.131","PERIAPSIS":"558.055","LAUNCH_DATE":"2023-01-26","GP_ID":"234492812","REF_FRAME":"TEME","EPOCH":"2023-06-23T00:01:17.281344","RCS_SIZE":"LARGE","TLE_LINE1":"1 55346U 23013R   23174.00089446 -.00000114  00000-0  66506-5 0  9995","MEAN_ELEMENT_THEORY":"SGP4","EPHEMERIS_TYPE":"0","CLASSIFICATION_TYPE":"U","NORAD_CAT_ID":"55346","MEAN_MOTION_DOT":"-0.00000114","ARG_OF_PERICENTER":"273.9760","RA_OF_ASC_NODE":"283.5008","OBJECT_TYPE":"PAYLOAD","BSTAR":"0.00000665060000","PERIOD":"95.838","MEAN_ANOMALY":"86.0911","REV_AT_EPOCH":"2311","ELEMENT_SET_NO":"999","SEMIMAJOR_AXIS":"6937.228","MEAN_MOTION":"15.02532295","INCLINATION":"43.0043","OBJECT_NAME":"STARLINK-5631","ECCENTRICITY":"0.00014960","TIME_SYSTEM":"UTC","SITE":"AFETR","COUNTRY_CODE":"US","DECAY_DATE":null,"CENTER_NAME":"EARTH"},{"SEMIMAJOR_AXIS":"6937.219","MEAN_MOTION":"15.02535358","ELEMENT_SET_NO":"999","INCLINATION":"43.0045","MEAN_ANOMALY":"86.7290","PERIOD":"95.838","REV_AT_EPOCH":"2311","OBJECT_TYPE":"PAYLOAD","BSTAR":"0.00004316900000","COUNTRY_CODE":"US","CENTER_NAME":"EARTH","DECAY_DATE":null,"SITE":"AFETR","ECCENTRICITY":"0.00014970","OBJECT_NAME":"STARLINK-5663","TIME_SYSTEM":"UTC","REF_FRAME":"TEME","LAUNCH_DATE":"2023-01-26","PERIAPSIS":"558.045","GP_ID":"234492820","MEAN_MOTION_DDOT":"0.0000000000000","OBJECT_ID":"2023-013S","APOAPSIS":"560.122","FILE":"3940276","TLE_LINE2":"2 55347  43.0045 283.4116 0001497 273.3381  86.7290 15.02535358 23111","ARG_OF_PERICENTER":"273.3381","RA_OF_ASC_NODE":"283.4116","MEAN_MOTION_DOT":"0.00000379","NORAD_CAT_ID":"55347","RCS_SIZE":"LARGE","CLASSIFICATION_TYPE":"U","TLE_LINE1":"1 55347U 23013S   23173.98979180  .00000379  00000-0  43169-4 0  9996","EPHEMERIS_TYPE":"0","MEAN_ELEMENT_THEORY":"SGP4","EPOCH":"2023-06-22T23:45:18.011520"},{"RCS_SIZE":"LARGE","CLASSIFICATION_TYPE":"U","TLE_LINE1":"1 55348U 23013T   23174.59696387  .00001393  00000-0  11814-3 0  9998","MEAN_ELEMENT_THEORY":"SGP4","EPHEMERIS_TYPE":"0","EPOCH":"2023-06-23T14:19:37.678368","ARG_OF_PERICENTER":"276.0519","RA_OF_ASC_NODE":"280.2331","MEAN_MOTION_DOT":"0.00001393","NORAD_CAT_ID":"55348","MEAN_MOTION_DDOT":"0.0000000000000","OBJECT_ID":"2023-013T","FILE":"3940855","APOAPSIS":"560.258","TLE_LINE2":"2 55348  43.0043 280.2331 0001734 276.0519  84.0126 15.02544613 23204","REF_FRAME":"TEME","PERIAPSIS":"557.852","LAUNCH_DATE":"2023-01-26","GP_ID":"234506581","SITE":"AFETR","ECCENTRICITY":"0.00017340","OBJECT_NAME":"STARLINK-5609","TIME_SYSTEM":"UTC","COUNTRY_CODE":"US","CENTER_NAME":"EARTH","DECAY_DATE":null,"OBJECT_TYPE":"PAYLOAD","BSTAR":"0.00011814000000","SEMIMAJOR_AXIS":"6937.190","INCLINATION":"43.0043","ELEMENT_SET_NO":"999","MEAN_MOTION":"15.02544613","MEAN_ANOMALY":"84.0126","PERIOD":"95.837","REV_AT_EPOCH":"2320"},{"REF_FRAME":"TEME","GP_ID":"234506079","LAUNCH_DATE":"2023-01-26","PERIAPSIS":"557.828","TLE_LINE2":"2 55349  43.0027 279.4806 0001638 283.7532  76.3128 15.02574060 23224","FILE":"3940855","APOAPSIS":"560.101","OBJECT_ID":"2023-013U","MEAN_MOTION_DDOT":"0.0000000000000","RA_OF_ASC_NODE":"279.4806","ARG_OF_PERICENTER":"283.7532","MEAN_MOTION_DOT":"0.00011070","NORAD_CAT_ID":"55349","TLE_LINE1":"1 55349U 23013U   23174.72659668  .00011070  00000-0  83240-3 0  9990","MEAN_ELEMENT_THEORY":"SGP4","EPHEMERIS_TYPE":"0","CLASSIFICATION_TYPE":"U","RCS_SIZE":"LARGE","EPOCH":"2023-06-23T17:26:17.953152","MEAN_MOTION":"15.02574060","SEMIMAJOR_AXIS":"6937.099","ELEMENT_SET_NO":"999","INCLINATION":"43.0027","REV_AT_EPOCH":"2322","PERIOD":"95.836","MEAN_ANOMALY":"76.3128","BSTAR":"0.00083240000000","OBJECT_TYPE":"PAYLOAD","DECAY_DATE":null,"CENTER_NAME":"EARTH","COUNTRY_CODE":"US","SITE":"AFETR","TIME_SYSTEM":"UTC","OBJECT_NAME":"STARLINK-5666","ECCENTRICITY":"0.00016380"},{"NORAD_CAT_ID":"55350","MEAN_MOTION_DOT":"0.00000320","RA_OF_ASC_NODE":"279.8160","ARG_OF_PERICENTER":"279.7049","EPOCH":"2023-06-23T15:45:46.321632","RCS_SIZE":"LARGE","MEAN_ELEMENT_THEORY":"SGP4","TLE_LINE1":"1 55350U 23013V   23174.65678613  .00000320  00000-0  38725-4 0  9990","EPHEMERIS_TYPE":"0","CLASSIFICATION_TYPE":"U","LAUNCH_DATE":"2023-01-26","PERIAPSIS":"557.996","GP_ID":"234506770","REF_FRAME":"TEME","OBJECT_ID":"2023-013V","MEAN_MOTION_DDOT":"0.0000000000000","TLE_LINE2":"2 55350  43.0039 279.8160 0001535 279.7049  80.3620 15.02542638 23217","APOAPSIS":"560.126","FILE":"3940869","COUNTRY_CODE":"US","DECAY_DATE":null,"CENTER_NAME":"EARTH","OBJECT_NAME":"STARLINK-5668","ECCENTRICITY":"0.00015350","TIME_SYSTEM":"UTC","SITE":"AFETR","MEAN_ANOMALY":"80.3620","PERIOD":"95.838","REV_AT_EPOCH":"2321","ELEMENT_SET_NO":"999","SEMIMAJOR_AXIS":"6937.196","INCLINATION":"43.0039","MEAN_MOTION":"15.02542638","OBJECT_TYPE":"PAYLOAD","BSTAR":"0.00003872500000"},{"FILE":"3940856","APOAPSIS":"558.493","TLE_LINE2":"2 55351  43.0039 279.3748 0001338 272.3430  87.7260 15.03028931 23227","MEAN_MOTION_DDOT":"0.0000000000000","OBJECT_ID":"2023-013W","GP_ID":"234506585","PERIAPSIS":"556.637","LAUNCH_DATE":"2023-01-26","REF_FRAME":"TEME","EPOCH":"2023-06-23T17:06:12.590208","CLASSIFICATION_TYPE":"U","TLE_LINE1":"1 55351U 23013W   23174.71264572  .00054781  00000-0  39863-2 0  9995","MEAN_ELEMENT_THEORY":"SGP4","EPHEMERIS_TYPE":"0","RCS_SIZE":"LARGE","NORAD_CAT_ID":"55351","MEAN_MOTION_DOT":"0.00054781","RA_OF_ASC_NODE":"279.3748","ARG_OF_PERICENTER":"272.3430","BSTAR":"0.00398630000000","OBJECT_TYPE":"PAYLOAD","REV_AT_EPOCH":"2322","MEAN_ANOMALY":"87.7260","PERIOD":"95.807","INCLINATION":"43.0039","SEMIMAJOR_AXIS":"6935.700","ELEMENT_SET_NO":"999","MEAN_MOTION":"15.03028931","TIME_SYSTEM":"UTC","ECCENTRICITY":"0.00013380","OBJECT_NAME":"STARLINK-5659","SITE":"AFETR","CENTER_NAME":"EARTH","DECAY_DATE":null,"COUNTRY_CODE":"US"},{"TIME_SYSTEM":"UTC","OBJECT_NAME":"STARLINK-5547","ECCENTRICITY":"0.00014620","SITE":"AFETR","DECAY_DATE":null,"CENTER_NAME":"EARTH","COUNTRY_CODE":"US","BSTAR":"0.00000683820000","OBJECT_TYPE":"PAYLOAD","REV_AT_EPOCH":"2317","PERIOD":"95.838","MEAN_ANOMALY":"96.4661","MEAN_MOTION":"15.02532571","SEMIMAJOR_AXIS":"6937.227","ELEMENT_SET_NO":"999","INCLINATION":"43.0033","EPOCH":"2023-06-23T09:14:52.706400","MEAN_ELEMENT_THEORY":"SGP4","TLE_LINE1":"1 55352U 23013X   23174.38533225 -.00000111  00000-0  68382-5 0  9993","EPHEMERIS_TYPE":"0","CLASSIFICATION_TYPE":"U","RCS_SIZE":"LARGE","NORAD_CAT_ID":"55352","MEAN_MOTION_DOT":"-0.00000111","ARG_OF_PERICENTER":"263.6015","RA_OF_ASC_NODE":"281.2185","TLE_LINE2":"2 55352  43.0033 281.2185 0001462 263.6015  96.4661 15.02532571 23174","APOAPSIS":"560.106","FILE":"3940594","OBJECT_ID":"2023-013X","MEAN_MOTION_DDOT":"0.0000000000000","GP_ID":"234500199","LAUNCH_DATE":"2023-01-26","PERIAPSIS":"558.078","REF_FRAME":"TEME"}];
